line1,line2,validFromUtcTime
1 00000U 00000E   26001.00000000  .00000000  00000-0  27772-4 0    01,2 00000  89.0018   0.3309 0010068 269.9467  75.1983 13.55305296    03,2026-01-01T00:00:00Z
1 00000U 00000E   26002.00000000  .00000000  00000-0  27772-4 0    02,2 00000  89.0017   0.2283 0010020 267.7242 273.6199 13.55334771    01,2026-01-02T00:00:00Z
